[{"OBJECT_NAME":"ASTROCAST-0403","OBJECT_ID":"2023-001DG","EPOCH":"2026-03-09T19:45:35.762976","MEAN_MOTION":15.28004949,"ECCENTRICITY":0.00047706,"INCLINATION":97.5604,"RA_OF_ASC_NODE":161.3228,"ARG_OF_PERICENTER":338.0704,"MEAN_ANOMALY":22.033,"EPHEMERIS_TYPE":0,"CLASSIFICATION_TYPE":"U","NORAD_CAT_ID":55111,"ELEMENT_SET_NO":999,"REV_AT_EPOCH":12937,"BSTAR":0.0005131719,"MEAN_MOTION_DOT":0.00013959,"MEAN_MOTION_DDOT":0},{"OBJECT_NAME":"STARLINK-30956","OBJECT_ID":"2023-186J","EPOCH":"2026-03-09T22:30:22.489920","MEAN_MOTION":15.26738843,"ECCENTRICITY":0.00015926,"INCLINATION":43.0024,"RA_OF_ASC_NODE":39.5665,"ARG_OF_PERICENTER":265.8868,"MEAN_ANOMALY":94.1802,"EPHEMERIS_TYPE":0,"CLASSIFICATION_TYPE":"U","NORAD_CAT_ID":58481,"ELEMENT_SET_NO":999,"REV_AT_EPOCH":12619,"BSTAR":8.7183935e-5,"MEAN_MOTION_DOT":2.079e-5,"MEAN_MOTION_DDOT":0}]
